YAOGAN-43 01D           
1 60461U 24148D   26068.43560480  .00010676  00000+0  37766-3 0  9999
2 60461  35.0010  61.7102 0002556 326.2473  33.8080 15.28369377 87008
STARLINK-35598          
1 66509U 25263AA  26068.16207796  .00024841  00000+0  90980-3 0  9991
2 66509  43.0038 354.0684 0002071 272.3623  87.6991 15.27556739 18819
